ONEWEB-0183             
1 48219U 21031K   26041.15108852  .00000159  00000+0  39329-3 0  9997
2 48219  87.9021 315.0377 0001891  75.4362 284.6978 13.14503933231636
ONEWEB-0185             
1 48220U 21031L   26040.79666987 -.00000133  00000+0 -39188-3 0  9993
2 48220  87.9026 315.0932 0002132  78.1964 281.9405 13.14503486231512
ONEWEB-0187             
1 48221U 21031M   26041.15729773 -.00000058  00000+0 -19184-3 0  9998
2 48221  87.9018 315.0556 0001934  82.0398 278.0951 13.14503864231579
ONEWEB-0192             
1 48222U 21031N   26041.12730515  .00000357  00000+0  92803-3 0  9991
2 48222  87.9016 315.0512 0001665  80.6118 279.5200 13.14503313231487
ONEWEB-0219             
1 48223U 21031P   26040.80221911 -.00000064  00000+0 -20629-3 0  9995
2 48223  87.9023 315.0985 0001978  80.9582 279.1771 13.14503953231642
ONEWEB-0202             
1 48224U 21031Q   26040.78318805 -.00000185  00000+0 -53376-3 0  9991
2 48224  87.9020 315.1115 0001729 101.9119 258.2205 13.14502642231622
ONEWEB-0204             
1 48225U 21031R   26040.81727185  .00000252  00000+0  64417-3 0  9992
2 48225  87.9024 315.0984 0001986  71.2443 288.8902 13.14504472231529
ONEWEB-0205             
1 48226U 21031S   26040.79270467 -.00000151  00000+0 -44064-3 0  9992
2 48226  87.9022 315.0951 0001883  79.7344 280.3998 13.14503822231532
ONEWEB-0206             
1 48227U 21031T   26041.14632822  .00000054  00000+0  11203-3 0  9999
2 48227  87.9038 315.0215 0001453  77.2092 282.9200 13.14504202231536
ONEWEB-0182             
1 48228U 21031U   26041.14157729  .00000163  00000+0  40412-3 0  9993
2 48228  87.9022 315.0394 0001865  72.8833 287.2501 13.14503327231741
ONEWEB-0186             
1 48229U 21031V   26041.15266718 -.00000015  00000+0 -73723-4 0  9994
2 48229  87.9031 315.0226 0001798  81.7422 278.3912 13.14505052231692
ONEWEB-0181             
1 48230U 21031W   26041.13047957  .00000268  00000+0  68941-3 0  9999
2 48230  87.9016 315.0724 0001773  83.6590 276.4741 13.14504004231549
ONEWEB-0188             
1 48231U 21031X   26040.78794149 -.00000197  00000+0 -56469-3 0  9997
2 48231  87.9017 315.1384 0001776  76.2844 283.8483 13.14502932231405
ONEWEB-0220             
1 48232U 21031Y   26041.13205779  .00000381  00000+0  99417-3 0  9997
2 48232  87.9027 315.0265 0001948  81.6420 278.4930 13.14503687231714
ONEWEB-0165             
1 48233U 21031Z   26041.16060531 -.00000096  00000+0 -29344-3 0  9993
2 48233  87.9018 315.0388 0001726  88.7030 271.4297 13.14503785231673
ONEWEB-0199             
1 48234U 21031AA  26041.14474777  .00000078  00000+0  17677-3 0  9997
2 48234  87.9027 315.0226 0001616  80.5321 279.5991 13.14503163231575
ONEWEB-0203             
1 48235U 21031AB  26041.13522393  .00000178  00000+0  44459-3 0  9994
2 48235  87.9025 315.0233 0001487  83.5514 276.5785 13.14503762231589
