[{"OBJECT_NAME":"ONEWEB-0183","OBJECT_ID":"2021-031K","EPOCH":"2026-02-10T03:37:34.048128","MEAN_MOTION":13.14503933,"ECCENTRICITY":0.0001891,"INCLINATION":87.9021,"RA_OF_ASC_NODE":315.0377,"ARG_OF_PERICENTER":75.4362,"MEAN_ANOMALY":284.6978,"EPHEMERIS_TYPE":0,"CLASSIFICATION_TYPE":"U","NORAD_CAT_ID":48219,"ELEMENT_SET_NO":999,"REV_AT_EPOCH":23163,"BSTAR":0.00039329,"MEAN_MOTION_DOT":1.59e-6,"MEAN_MOTION_DDOT":0},{"OBJECT_NAME":"ONEWEB-0185","OBJECT_ID":"2021-031L","EPOCH":"2026-02-09T19:07:12.276768","MEAN_MOTION":13.14503486,"ECCENTRICITY":0.00021321,"INCLINATION":87.9026,"RA_OF_ASC_NODE":315.0932,"ARG_OF_PERICENTER":78.1964,"MEAN_ANOMALY":281.9405,"EPHEMERIS_TYPE":0,"CLASSIFICATION_TYPE":"U","NORAD_CAT_ID":48220,"ELEMENT_SET_NO":999,"REV_AT_EPOCH":23151,"BSTAR":-0.00039188319,"MEAN_MOTION_DOT":-1.33e-6,"MEAN_MOTION_DDOT":0},{"OBJECT_NAME":"ONEWEB-0187","OBJECT_ID":"2021-031M","EPOCH":"2026-02-10T03:46:30.523872","MEAN_MOTION":13.14503864,"ECCENTRICITY":0.0001934,"INCLINATION":87.9018,"RA_OF_ASC_NODE":315.0556,"ARG_OF_PERICENTER":82.0398,"MEAN_ANOMALY":278.0951,"EPHEMERIS_TYPE":0,"CLASSIFICATION_TYPE":"U","NORAD_CAT_ID":48221,"ELEMENT_SET_NO":999,"REV_AT_EPOCH":23157,"BSTAR":-0.00019184,"MEAN_MOTION_DOT":-5.8e-7,"MEAN_MOTION_DDOT":0},{"OBJECT_NAME":"ONEWEB-0192","OBJECT_ID":"2021-031N","EPOCH":"2026-02-10T03:03:19.164960","MEAN_MOTION":13.14503313,"ECCENTRICITY":0.0001665,"INCLINATION":87.9016,"RA_OF_ASC_NODE":315.0512,"ARG_OF_PERICENTER":80.6118,"MEAN_ANOMALY":279.52,"EPHEMERIS_TYPE":0,"CLASSIFICATION_TYPE":"U","NORAD_CAT_ID":48222,"ELEMENT_SET_NO":999,"REV_AT_EPOCH":23148,"BSTAR":0.00092803,"MEAN_MOTION_DOT":3.57e-6,"MEAN_MOTION_DDOT":0},{"OBJECT_NAME":"ONEWEB-0219","OBJECT_ID":"2021-031P","EPOCH":"2026-02-09T19:15:11.731104","MEAN_MOTION":13.14503953,"ECCENTRICITY":0.00019788,"INCLINATION":87.9023,"RA_OF_ASC_NODE":315.0985,"ARG_OF_PERICENTER":80.9582,"MEAN_ANOMALY":279.1771,"EPHEMERIS_TYPE":0,"CLASSIFICATION_TYPE":"U","NORAD_CAT_ID":48223,"ELEMENT_SET_NO":999,"REV_AT_EPOCH":23164,"BSTAR":-0.00020628528,"MEAN_MOTION_DOT":-6.4e-7,"MEAN_MOTION_DDOT":0},{"OBJECT_NAME":"ONEWEB-0202","OBJECT_ID":"2021-031Q","EPOCH":"2026-02-09T18:47:47.447520","MEAN_MOTION":13.14502642,"ECCENTRICITY":0.00017296,"INCLINATION":87.902,"RA_OF_ASC_NODE":315.1115,"ARG_OF_PERICENTER":101.9119,"MEAN_ANOMALY":258.2205,"EPHEMERIS_TYPE":0,"CLASSIFICATION_TYPE":"U","NORAD_CAT_ID":48224,"ELEMENT_SET_NO":999,"REV_AT_EPOCH":23162,"BSTAR":-0.00053376227,"MEAN_MOTION_DOT":-1.85e-6,"MEAN_MOTION_DDOT":0},{"OBJECT_NAME":"ONEWEB-0204","OBJECT_ID":"2021-031R","EPOCH":"2026-02-09T19:36:52.287840","MEAN_MOTION":13.14504472,"ECCENTRICITY":0.00019866,"INCLINATION":87.9024,"RA_OF_ASC_NODE":315.0984,"ARG_OF_PERICENTER":71.2443,"MEAN_ANOMALY":288.8902,"EPHEMERIS_TYPE":0,"CLASSIFICATION_TYPE":"U","NORAD_CAT_ID":48225,"ELEMENT_SET_NO":999,"REV_AT_EPOCH":23152,"BSTAR":0.00064417496,"MEAN_MOTION_DOT":2.52e-6,"MEAN_MOTION_DDOT":0},{"OBJECT_NAME":"ONEWEB-0205","OBJECT_ID":"2021-031S","EPOCH":"2026-02-09T19:01:29.683488","MEAN_MOTION":13.14503822,"ECCENTRICITY":0.0001883,"INCLINATION":87.9022,"RA_OF_ASC_NODE":315.0951,"ARG_OF_PERICENTER":79.7344,"MEAN_ANOMALY":280.3998,"EPHEMERIS_TYPE":0,"CLASSIFICATION_TYPE":"U","NORAD_CAT_ID":48226,"ELEMENT_SET_NO":999,"REV_AT_EPOCH":23153,"BSTAR":-0.00044064055,"MEAN_MOTION_DOT":-1.51e-6,"MEAN_MOTION_DDOT":0},{"OBJECT_NAME":"ONEWEB-0206","OBJECT_ID":"2021-031T","EPOCH":"2026-02-10T03:30:42.758208","MEAN_MOTION":13.14504202,"ECCENTRICITY":0.0001453,"INCLINATION":87.9038,"RA_OF_ASC_NODE":315.0215,"ARG_OF_PERICENTER":77.2092,"MEAN_ANOMALY":282.92,"EPHEMERIS_TYPE":0,"CLASSIFICATION_TYPE":"U","NORAD_CAT_ID":48227,"ELEMENT_SET_NO":999,"REV_AT_EPOCH":23153,"BSTAR":0.00011203,"MEAN_MOTION_DOT":5.4e-7,"MEAN_MOTION_DDOT":0},{"OBJECT_NAME":"ONEWEB-0182","OBJECT_ID":"2021-031U","EPOCH":"2026-02-10T03:23:52.277856","MEAN_MOTION":13.14503327,"ECCENTRICITY":0.0001865,"INCLINATION":87.9022,"RA_OF_ASC_NODE":315.0394,"ARG_OF_PERICENTER":72.8833,"MEAN_ANOMALY":287.2501,"EPHEMERIS_TYPE":0,"CLASSIFICATION_TYPE":"U","NORAD_CAT_ID":48228,"ELEMENT_SET_NO":999,"REV_AT_EPOCH":23174,"BSTAR":0.00040412,"MEAN_MOTION_DOT":1.63e-6,"MEAN_MOTION_DDOT":0},{"OBJECT_NAME":"ONEWEB-0186","OBJECT_ID":"2021-031V","EPOCH":"2026-02-10T03:39:50.444352","MEAN_MOTION":13.14505052,"ECCENTRICITY":0.0001798,"INCLINATION":87.9031,"RA_OF_ASC_NODE":315.0226,"ARG_OF_PERICENTER":81.7422,"MEAN_ANOMALY":278.3912,"EPHEMERIS_TYPE":0,"CLASSIFICATION_TYPE":"U","NORAD_CAT_ID":48229,"ELEMENT_SET_NO":999,"REV_AT_EPOCH":23169,"BSTAR":-7.3723e-5,"MEAN_MOTION_DOT":-1.5e-7,"MEAN_MOTION_DDOT":0},{"OBJECT_NAME":"ONEWEB-0181","OBJECT_ID":"2021-031W","EPOCH":"2026-02-10T03:07:53.434848","MEAN_MOTION":13.14504004,"ECCENTRICITY":0.0001773,"INCLINATION":87.9016,"RA_OF_ASC_NODE":315.0724,"ARG_OF_PERICENTER":83.659,"MEAN_ANOMALY":276.4741,"EPHEMERIS_TYPE":0,"CLASSIFICATION_TYPE":"U","NORAD_CAT_ID":48230,"ELEMENT_SET_NO":999,"REV_AT_EPOCH":23154,"BSTAR":0.00068941,"MEAN_MOTION_DOT":2.68e-6,"MEAN_MOTION_DDOT":0},{"OBJECT_NAME":"ONEWEB-0188","OBJECT_ID":"2021-031X","EPOCH":"2026-02-09T18:54:38.144736","MEAN_MOTION":13.14502932,"ECCENTRICITY":0.00017767,"INCLINATION":87.9017,"RA_OF_ASC_NODE":315.1384,"ARG_OF_PERICENTER":76.2844,"MEAN_ANOMALY":283.8483,"EPHEMERIS_TYPE":0,"CLASSIFICATION_TYPE":"U","NORAD_CAT_ID":48231,"ELEMENT_SET_NO":999,"REV_AT_EPOCH":23140,"BSTAR":-0.00056468809,"MEAN_MOTION_DOT":-1.97e-6,"MEAN_MOTION_DDOT":0},{"OBJECT_NAME":"ONEWEB-0220","OBJECT_ID":"2021-031Y","EPOCH":"2026-02-10T03:10:09.793056","MEAN_MOTION":13.14503687,"ECCENTRICITY":0.0001948,"INCLINATION":87.9027,"RA_OF_ASC_NODE":315.0265,"ARG_OF_PERICENTER":81.642,"MEAN_ANOMALY":278.493,"EPHEMERIS_TYPE":0,"CLASSIFICATION_TYPE":"U","NORAD_CAT_ID":48232,"ELEMENT_SET_NO":999,"REV_AT_EPOCH":23171,"BSTAR":0.00099417,"MEAN_MOTION_DOT":3.81e-6,"MEAN_MOTION_DDOT":0},{"OBJECT_NAME":"ONEWEB-0165","OBJECT_ID":"2021-031Z","EPOCH":"2026-02-10T03:51:16.298784","MEAN_MOTION":13.14503785,"ECCENTRICITY":0.0001726,"INCLINATION":87.9018,"RA_OF_ASC_NODE":315.0388,"ARG_OF_PERICENTER":88.703,"MEAN_ANOMALY":271.4297,"EPHEMERIS_TYPE":0,"CLASSIFICATION_TYPE":"U","NORAD_CAT_ID":48233,"ELEMENT_SET_NO":999,"REV_AT_EPOCH":23167,"BSTAR":-0.00029344,"MEAN_MOTION_DOT":-9.6e-7,"MEAN_MOTION_DDOT":0},{"OBJECT_NAME":"ONEWEB-0199","OBJECT_ID":"2021-031AA","EPOCH":"2026-02-10T03:28:26.207328","MEAN_MOTION":13.14503163,"ECCENTRICITY":0.0001616,"INCLINATION":87.9027,"RA_OF_ASC_NODE":315.0226,"ARG_OF_PERICENTER":80.5321,"MEAN_ANOMALY":279.5991,"EPHEMERIS_TYPE":0,"CLASSIFICATION_TYPE":"U","NORAD_CAT_ID":48234,"ELEMENT_SET_NO":999,"REV_AT_EPOCH":23157,"BSTAR":0.00017677,"MEAN_MOTION_DOT":7.8e-7,"MEAN_MOTION_DDOT":0},{"OBJECT_NAME":"ONEWEB-0203","OBJECT_ID":"2021-031AB","EPOCH":"2026-02-10T03:14:43.347552","MEAN_MOTION":13.14503762,"ECCENTRICITY":0.0001487,"INCLINATION":87.9025,"RA_OF_ASC_NODE":315.0233,"ARG_OF_PERICENTER":83.5514,"MEAN_ANOMALY":276.5785,"EPHEMERIS_TYPE":0,"CLASSIFICATION_TYPE":"U","NORAD_CAT_ID":48235,"ELEMENT_SET_NO":999,"REV_AT_EPOCH":23158,"BSTAR":0.00044459,"MEAN_MOTION_DOT":1.78e-6,"MEAN_MOTION_DDOT":0}]
